LEMUR-2-SAM-AMELIA      
1 42781U 17036S   17345.86189115  .00001944  00000-0  89636-4 0  9992
2 42781  97.4291  43.4858 0012837  18.4734 341.6965 15.21398125 26027
